[{"OBJECT_NAME":"ONEWEB-0207","OBJECT_ID":"2021-031AJ","EPOCH":"2026-06-19T07:25:40.501920","MEAN_MOTION":13.1450308,"ECCENTRICITY":0.00022,"INCLINATION":87.8972,"RA_OF_ASC_NODE":289.276,"ARG_OF_PERICENTER":97.9445,"MEAN_ANOMALY":262.1935,"EPHEMERIS_TYPE":0,"CLASSIFICATION_TYPE":"U","NORAD_CAT_ID":48242,"ELEMENT_SET_NO":999,"REV_AT_EPOCH":24857,"BSTAR":0.00051531,"MEAN_MOTION_DOT":2.04e-06,"MEAN_MOTION_DDOT":0.0},{"OBJECT_NAME":"ONEWEB-0208","OBJECT_ID":"2021-031AK","EPOCH":"2026-06-19T06:59:24.622944","MEAN_MOTION":13.14503793,"ECCENTRICITY":0.0002018,"INCLINATION":87.897,"RA_OF_ASC_NODE":289.2859,"ARG_OF_PERICENTER":111.0423,"MEAN_ANOMALY":249.0923,"EPHEMERIS_TYPE":0,"CLASSIFICATION_TYPE":"U","NORAD_CAT_ID":48243,"ELEMENT_SET_NO":999,"REV_AT_EPOCH":24858,"BSTAR":-0.00034218,"MEAN_MOTION_DOT":-1.14e-06,"MEAN_MOTION_DDOT":0.0},{"OBJECT_NAME":"ONEWEB-0200","OBJECT_ID":"2021-031AL","EPOCH":"2026-06-19T02:27:40.186944","MEAN_MOTION":13.14502736,"ECCENTRICITY":0.0002009,"INCLINATION":87.8977,"RA_OF_ASC_NODE":289.3105,"ARG_OF_PERICENTER":103.0614,"MEAN_ANOMALY":257.074,"EPHEMERIS_TYPE":0,"CLASSIFICATION_TYPE":"U","NORAD_CAT_ID":48244,"ELEMENT_SET_NO":999,"REV_AT_EPOCH":24848,"BSTAR":0.00035420000000000004,"MEAN_MOTION_DOT":1.44e-06,"MEAN_MOTION_DDOT":0.0},{"OBJECT_NAME":"ONEWEB-0217","OBJECT_ID":"2021-031AM","EPOCH":"2026-06-19T06:29:42.431136","MEAN_MOTION":13.14500027,"ECCENTRICITY":0.0002001,"INCLINATION":87.8976,"RA_OF_ASC_NODE":289.2813,"ARG_OF_PERICENTER":112.2739,"MEAN_ANOMALY":247.8604,"EPHEMERIS_TYPE":0,"CLASSIFICATION_TYPE":"U","NORAD_CAT_ID":48245,"ELEMENT_SET_NO":999,"REV_AT_EPOCH":24845,"BSTAR":0.00065428,"MEAN_MOTION_DOT":2.55e-06,"MEAN_MOTION_DDOT":0.0},{"OBJECT_NAME":"ONEWEB-0211","OBJECT_ID":"2021-045A","EPOCH":"2026-06-19T05:50:36.549312","MEAN_MOTION":13.16197296,"ECCENTRICITY":0.0001987,"INCLINATION":87.9008,"RA_OF_ASC_NODE":258.6715,"ARG_OF_PERICENTER":120.8104,"MEAN_ANOMALY":239.3222,"EPHEMERIS_TYPE":0,"CLASSIFICATION_TYPE":"U","NORAD_CAT_ID":48767,"ELEMENT_SET_NO":999,"REV_AT_EPOCH":24471,"BSTAR":0.00040377,"MEAN_MOTION_DOT":1.66e-06,"MEAN_MOTION_DDOT":0.0},{"OBJECT_NAME":"ONEWEB-0223","OBJECT_ID":"2021-045B","EPOCH":"2026-06-19T05:55:25.472640","MEAN_MOTION":13.15549803,"ECCENTRICITY":0.0001741,"INCLINATION":87.9012,"RA_OF_ASC_NODE":258.7799,"ARG_OF_PERICENTER":111.9212,"MEAN_ANOMALY":248.2103,"EPHEMERIS_TYPE":0,"CLASSIFICATION_TYPE":"U","NORAD_CAT_ID":48768,"ELEMENT_SET_NO":999,"REV_AT_EPOCH":24467,"BSTAR":0.00032693,"MEAN_MOTION_DOT":1.36e-06,"MEAN_MOTION_DDOT":0.0},{"OBJECT_NAME":"ONEWEB-0230","OBJECT_ID":"2021-045C","EPOCH":"2026-06-19T05:14:20.774400","MEAN_MOTION":13.15548269,"ECCENTRICITY":0.0002024,"INCLINATION":87.9001,"RA_OF_ASC_NODE":258.7992,"ARG_OF_PERICENTER":96.5743,"MEAN_ANOMALY":263.5618,"EPHEMERIS_TYPE":0,"CLASSIFICATION_TYPE":"U","NORAD_CAT_ID":48769,"ELEMENT_SET_NO":999,"REV_AT_EPOCH":24493,"BSTAR":0.00047769,"MEAN_MOTION_DOT":1.93e-06,"MEAN_MOTION_DDOT":0.0},{"OBJECT_NAME":"ONEWEB-0237","OBJECT_ID":"2021-045D","EPOCH":"2026-06-19T04:58:21.595296","MEAN_MOTION":13.1554731,"ECCENTRICITY":0.0001764,"INCLINATION":87.8999,"RA_OF_ASC_NODE":258.8028,"ARG_OF_PERICENTER":104.1022,"MEAN_ANOMALY":256.0304,"EPHEMERIS_TYPE":0,"CLASSIFICATION_TYPE":"U","NORAD_CAT_ID":48770,"ELEMENT_SET_NO":999,"REV_AT_EPOCH":24465,"BSTAR":-0.00014035,"MEAN_MOTION_DOT":-4e-07,"MEAN_MOTION_DDOT":0.0},{"OBJECT_NAME":"ONEWEB-0235","OBJECT_ID":"2021-045E","EPOCH":"2026-06-19T06:11:23.399808","MEAN_MOTION":13.15548884,"ECCENTRICITY":0.0001688,"INCLINATION":87.9012,"RA_OF_ASC_NODE":258.7787,"ARG_OF_PERICENTER":110.0415,"MEAN_ANOMALY":250.0897,"EPHEMERIS_TYPE":0,"CLASSIFICATION_TYPE":"U","NORAD_CAT_ID":48771,"ELEMENT_SET_NO":999,"REV_AT_EPOCH":24465,"BSTAR":0.00015234,"MEAN_MOTION_DOT":7e-07,"MEAN_MOTION_DDOT":0.0},{"OBJECT_NAME":"ONEWEB-0242","OBJECT_ID":"2021-045F","EPOCH":"2026-06-19T06:02:14.806464","MEAN_MOTION":13.15547439,"ECCENTRICITY":0.0001764,"INCLINATION":87.9014,"RA_OF_ASC_NODE":258.7769,"ARG_OF_PERICENTER":99.9128,"MEAN_ANOMALY":260.2202,"EPHEMERIS_TYPE":0,"CLASSIFICATION_TYPE":"U","NORAD_CAT_ID":48772,"ELEMENT_SET_NO":999,"REV_AT_EPOCH":24469,"BSTAR":0.00016133,"MEAN_MOTION_DOT":7.4e-07,"MEAN_MOTION_DDOT":0.0},{"OBJECT_NAME":"ONEWEB-0241","OBJECT_ID":"2021-045G","EPOCH":"2026-06-19T05:44:00.692160","MEAN_MOTION":13.15549743,"ECCENTRICITY":0.0001911,"INCLINATION":87.8997,"RA_OF_ASC_NODE":258.7976,"ARG_OF_PERICENTER":113.8771,"MEAN_ANOMALY":246.256,"EPHEMERIS_TYPE":0,"CLASSIFICATION_TYPE":"U","NORAD_CAT_ID":48773,"ELEMENT_SET_NO":999,"REV_AT_EPOCH":24460,"BSTAR":0.00058425,"MEAN_MOTION_DOT":2.33e-06,"MEAN_MOTION_DDOT":0.0},{"OBJECT_NAME":"ONEWEB-0243","OBJECT_ID":"2021-045H","EPOCH":"2026-06-19T04:40:06.767328","MEAN_MOTION":13.15549006,"ECCENTRICITY":0.0001452,"INCLINATION":87.9007,"RA_OF_ASC_NODE":258.8192,"ARG_OF_PERICENTER":96.7042,"MEAN_ANOMALY":263.4254,"EPHEMERIS_TYPE":0,"CLASSIFICATION_TYPE":"U","NORAD_CAT_ID":48774,"ELEMENT_SET_NO":999,"REV_AT_EPOCH":24462,"BSTAR":-0.00020561,"MEAN_MOTION_DOT":-6.5e-07,"MEAN_MOTION_DDOT":0.0},{"OBJECT_NAME":"ONEWEB-0222","OBJECT_ID":"2021-045J","EPOCH":"2026-06-19T06:05:40.537824","MEAN_MOTION":13.15549799,"ECCENTRICITY":0.0001856,"INCLINATION":87.9014,"RA_OF_ASC_NODE":258.7746,"ARG_OF_PERICENTER":107.3292,"MEAN_ANOMALY":252.8041,"EPHEMERIS_TYPE":0,"CLASSIFICATION_TYPE":"U","NORAD_CAT_ID":48775,"ELEMENT_SET_NO":999,"REV_AT_EPOCH":24467,"BSTAR":0.00028465,"MEAN_MOTION_DOT":1.2e-06,"MEAN_MOTION_DDOT":0.0},{"OBJECT_NAME":"ONEWEB-0244","OBJECT_ID":"2021-045K","EPOCH":"2026-06-19T04:53:48.471072","MEAN_MOTION":13.15548629,"ECCENTRICITY":0.0001851,"INCLINATION":87.9015,"RA_OF_ASC_NODE":258.7792,"ARG_OF_PERICENTER":102.3048,"MEAN_ANOMALY":257.829,"EPHEMERIS_TYPE":0,"CLASSIFICATION_TYPE":"U","NORAD_CAT_ID":48776,"ELEMENT_SET_NO":999,"REV_AT_EPOCH":24523,"BSTAR":-0.00010718,"MEAN_MOTION_DOT":-2.8e-07,"MEAN_MOTION_DDOT":0.0},{"OBJECT_NAME":"ONEWEB-0247","OBJECT_ID":"2021-045L","EPOCH":"2026-06-19T04:49:14.292768","MEAN_MOTION":13.15547683,"ECCENTRICITY":0.0001208,"INCLINATION":87.9001,"RA_OF_ASC_NODE":258.8118,"ARG_OF_PERICENTER":110.529,"MEAN_ANOMALY":249.597,"EPHEMERIS_TYPE":0,"CLASSIFICATION_TYPE":"U","NORAD_CAT_ID":48777,"ELEMENT_SET_NO":999,"REV_AT_EPOCH":24467,"BSTAR":-0.00025483,"MEAN_MOTION_DOT":-8.3e-07,"MEAN_MOTION_DDOT":0.0},{"OBJECT_NAME":"ONEWEB-0245","OBJECT_ID":"2021-045M","EPOCH":"2026-06-19T04:42:23.459040","MEAN_MOTION":13.15547982,"ECCENTRICITY":0.0001957,"INCLINATION":87.9015,"RA_OF_ASC_NODE":258.7927,"ARG_OF_PERICENTER":106.0001,"MEAN_ANOMALY":254.1345,"EPHEMERIS_TYPE":0,"CLASSIFICATION_TYPE":"U","NORAD_CAT_ID":48778,"ELEMENT_SET_NO":999,"REV_AT_EPOCH":24464,"BSTAR":-0.00011135000000000001,"MEAN_MOTION_DOT":-2.9e-07,"MEAN_MOTION_DDOT":0.0}]