ONEWEB-0207             
1 48242U 21031AJ  26170.30949655  .00000204  00000+0  51531-3 0  9997
2 48242  87.8972 289.2760 0002200  97.9445 262.1935 13.14503080248578
ONEWEB-0208             
1 48243U 21031AK  26170.29125721 -.00000114  00000+0 -34218-3 0  9991
2 48243  87.8970 289.2859 0002018 111.0423 249.0923 13.14503793248580
ONEWEB-0200             
1 48244U 21031AL  26170.10254846  .00000144  00000+0  35420-3 0  9990
2 48244  87.8977 289.3105 0002009 103.0614 257.0740 13.14502736248487
ONEWEB-0217             
1 48245U 21031AM  26170.27062999  .00000255  00000+0  65428-3 0  9999
2 48245  87.8976 289.2813 0002001 112.2739 247.8604 13.14500027248458
ONEWEB-0211             
1 48767U 21045A   26170.24347858  .00000166  00000+0  40377-3 0  9997
2 48767  87.9008 258.6715 0001987 120.8104 239.3222 13.16197296244717
ONEWEB-0223             
1 48768U 21045B   26170.24682260  .00000136  00000+0  32693-3 0  9996
2 48768  87.9012 258.7799 0001741 111.9212 248.2103 13.15549803244671
ONEWEB-0230             
1 48769U 21045C   26170.21829600  .00000193  00000+0  47769-3 0  9998
2 48769  87.9001 258.7992 0002024  96.5743 263.5618 13.15548269244932
ONEWEB-0237             
1 48770U 21045D   26170.20719439 -.00000040  00000+0 -14035-3 0  9990
2 48770  87.8999 258.8028 0001764 104.1022 256.0304 13.15547310244650
ONEWEB-0235             
1 48771U 21045E   26170.25790972  .00000070  00000+0  15234-3 0  9990
2 48771  87.9012 258.7787 0001688 110.0415 250.0897 13.15548884244654
ONEWEB-0242             
1 48772U 21045F   26170.25156026  .00000074  00000+0  16133-3 0  9990
2 48772  87.9014 258.7769 0001764  99.9128 260.2202 13.15547439244690
ONEWEB-0241             
1 48773U 21045G   26170.23889690  .00000233  00000+0  58425-3 0  9996
2 48773  87.8997 258.7976 0001911 113.8771 246.2560 13.15549743244606
ONEWEB-0243             
1 48774U 21045H   26170.19452277 -.00000065  00000+0 -20561-3 0  9994
2 48774  87.9007 258.8192 0001452  96.7042 263.4254 13.15549006244626
ONEWEB-0222             
1 48775U 21045J   26170.25394141  .00000120  00000+0  28465-3 0  9998
2 48775  87.9014 258.7746 0001856 107.3292 252.8041 13.15549799244673
ONEWEB-0244             
1 48776U 21045K   26170.20403323 -.00000028  00000+0 -10718-3 0  9998
2 48776  87.9015 258.7792 0001851 102.3048 257.8290 13.15548629245230
ONEWEB-0247             
1 48777U 21045L   26170.20085987 -.00000083  00000+0 -25483-3 0  9997
2 48777  87.9001 258.8118 0001208 110.5290 249.5970 13.15547683244674
ONEWEB-0245             
1 48778U 21045M   26170.19610485 -.00000029  00000+0 -11135-3 0  9992
2 48778  87.9015 258.7927 0001957 106.0001 254.1345 13.15547982244645
